[{"OBJECT_NAME":"ONEWEB-0158","OBJECT_ID":"2021-025N","EPOCH":"2026-03-09T17:11:50.400384","MEAN_MOTION":13.1347084,"ECCENTRICITY":0.00015731,"INCLINATION":87.9046,"RA_OF_ASC_NODE":339.9989,"ARG_OF_PERICENTER":88.7766,"MEAN_ANOMALY":271.3543,"EPHEMERIS_TYPE":0,"CLASSIFICATION_TYPE":"U","NORAD_CAT_ID":48054,"ELEMENT_SET_NO":999,"REV_AT_EPOCH":24057,"BSTAR":-9.291032e-5,"MEAN_MOTION_DOT":-2.1e-7,"MEAN_MOTION_DDOT":0},{"OBJECT_NAME":"UNKNOWN","OBJECT_ID":"","EPOCH":"2026-03-07T04:31:16.399200","MEAN_MOTION":13.41193905,"ECCENTRICITY":0.0238397,"INCLINATION":99.7799,"RA_OF_ASC_NODE":151.8941,"ARG_OF_PERICENTER":35.0928,"MEAN_ANOMALY":355.2182,"EPHEMERIS_TYPE":0,"CLASSIFICATION_TYPE":"U","NORAD_CAT_ID":82529,"ELEMENT_SET_NO":999,"REV_AT_EPOCH":60106,"BSTAR":0.00063177,"MEAN_MOTION_DOT":3.72e-6,"MEAN_MOTION_DDOT":0}]
